BRAC ONNESHA            
1 42823U 98067MX  18068.67341747  .00016638  00000-0  18230-3 0  9992
2 42823  51.6366 145.9307 0004470 170.8021 189.3056 15.63393717 38245
NIGERIAEDUSAT-1         
1 42824U 98067MY  18069.19858872  .00016723  00000-0  18404-3 0  9991
2 42824  51.6372 143.4483 0004339 172.7138 187.3921 15.63276615 38319
CORVUS BC2              
1 42846U 17042X   18068.80146975  .00000195  00000-0  24680-4 0  9990
2 42846  97.6051 335.2190 0010057 158.9565 201.2070 14.91770209 35559
CORVUS BC1              
1 42847U 17042Y   18068.78572624 -.00000012  00000-0  41183-5 0  9999
2 42847  97.6050 335.2385 0009708 158.3341 201.8291 14.91869396 35548
SILU-1 (SILKROAD 1)     
1 42903U 17021F   18068.82179962  .00017430  00000-0  16091-3 0  9991
2 42903  42.7786 208.1633 0011457 318.6968 168.4856 15.67190027 34313
MIRATA                  
1 43015U 17073C   18069.04244522  .00000652  00000-0  57821-4 0  9998
2 43015  97.6984   4.2817 0257786 234.1120 123.5914 14.77864201 16493
ASTERIA                 
1 43020U 98067NH  18068.79866308  .00010528  00000-0  14987-3 0  9997
2 43020  51.6396 152.7949 0002264 147.3425 212.7707 15.56949921 16990
DELLINGR (RBLE)         
1 43021U 98067NJ  18068.76535775  .00004641  00000-0  72049-4 0  9999
2 43021  51.6394 153.3178 0002196 145.2643 214.8492 15.56102221 16980
TECHEDSAT 6             
1 43026U 98067NK  18069.20369293  .00107771  00000-0  94073-3 0  9992
2 43026  51.6347 146.4745 0003104 343.4112  16.6782 15.68124464 17010
OSIRIS-3U               
1 43027U 98067NL  18068.77916230  .00019905  00000-0  25495-3 0  9996
2 43027  51.6383 151.9089 0002443 122.9557 237.1671 15.59174673 16889
AEROCUBE 7B             
1 43042U 17071F   18069.12968734  .00003784  00000-0  10951-3 0  9994
2 43042  51.6390 163.8587 0004978 267.6216  92.4198 15.38133148 14358
AEROCUBE 7C             
1 43043U 17071G   18068.86922804  .00003331  00000-0  97596-4 0  9992
2 43043  51.6393 165.1210 0004894 266.4860  93.5564 15.38150188 14283
CHEFSAT                 
1 43044U 17071H   18068.79141020  .00006143  00000-0  16885-3 0  9993
2 43044  51.6392 165.3555 0004980 262.6344  97.4074 15.38575124 14277
ASGARDIA 1              
1 43049U 17071N   18068.72923697  .00003038  00000-0  89462-4 0  9991
2 43049  51.6393 165.6890 0002300 288.4008  71.6725 15.38306999 14263
ISARA                   
1 43050U 17071P   18068.65755721  .00004562  00000-0  12815-3 0  9996
2 43050  51.6392 165.9642 0002334 283.5436  76.5288 15.38552487 14252
FAUNA                   
1 43052U 17071R   18068.66009751  .00003174  00000-0  92741-4 0  9999
2 43052  51.6396 165.9811 0002223 283.7476  76.3260 15.38397427 14247
CORVUS BC3              
1 43118U 18004H   18068.81142623  .00000733  00000-0  35160-4 0  9992
2 43118  97.5458 131.1506 0012353  84.1391 276.1253 15.22054825  8596
MICROMAS-2A             
1 43131U 18004W   18068.80089655  .00001745  00000-0  78576-4 0  9993
2 43131  97.5463 131.1677 0011595  87.4423 272.8140 15.22392210  8596
GOMX4-B                 
1 43196U 18015E   18068.90163244  .00000531  00000-0  24984-4 0  9990
2 43196  97.3303 199.9909 0020250 144.7752 215.4829 15.23624402  5415
GOMX4-A                 
1 43197U 18015F   18069.12307036  .00001070  00000-0  47524-4 0  9999
2 43197  97.3298 200.2017 0020494 143.0365 335.8891 15.23521039  5459
